NORAD_CAT_ID,OBJECT_NAME,OBJECT_TYPE,EPOCH,MEAN_MOTION,ECCENTRICITY,INCLINATION,RA_OF_ASC_NODE,ARG_OF_PERICENTER,MEAN_ANOMALY,BSTAR,MEAN_MOTION_DOT,MEAN_MOTION_DDOT,TLE_LINE0,TLE_LINE1,TLE_LINE2,SEMIMAJOR_AXIS,PERIOD,APOGEE,PERIGEE,DECAYED
54171.0,STARLINK-5229,PAYLOAD,2024-07-20 07:09:26,15.08836902,0.0001345,53.217,170.7651,81.159,278.9555,6.8702e-05,8.06e-06,0.0,0 STARLINK-5229,1 54171U 22141Q   24202.29822462  .00000806  00000-0  68702-4 0  9994,2 54171  53.2170 170.7651 0001345  81.1590 278.9555 15.08836902 95605,6917.89,95.438,540.685,538.824,0.0
54171.0,STARLINK-5229,PAYLOAD,2024-07-20 15:06:22,15.08835373,0.0001319,53.2167,169.2804,90.3148,269.7995,6.7197e-05,7.82e-06,0.0,0 STARLINK-5229,1 54171U 22141Q   24202.62942708  .00000782  00000-0  67197-4 0  9997,2 54171  53.2167 169.2804 0001319  90.3148 269.7995 15.08835373 95658,6917.895,95.438,540.672,538.847,0.0
54171.0,STARLINK-5229,PAYLOAD,2024-07-21 05:24:50,15.08843086,0.0001196,53.2156,166.6003,98.3093,261.8034,-1.9739e-05,-6.02e-06,0.0,0 STARLINK-5229,1 54171U 22141Q   24203.22558533 -.00000602  00000-0 -19739-4 0  9995,2 54171  53.2156 166.6003 0001196  98.3093 261.8034 15.08843086 95745,6917.871,95.437,540.563,538.909,0.0
54171.0,STARLINK-5229,PAYLOAD,2024-07-22 03:40:14,15.08843474,0.0001235,53.2155,162.4387,96.8576,263.2557,6.077e-05,6.8e-06,0.0,0 STARLINK-5229,1 54171U 22141Q   24204.15294441  .00000680  00000-0  60770-4 0  9998,2 54171  53.2155 162.4387 0001235  96.8576 263.2557 15.08843474 95888,6917.87,95.437,540.589,538.88,0.0
54171.0,STARLINK-5229,PAYLOAD,2024-07-22 16:23:19,15.08846737,0.0001234,53.2156,160.0605,96.9351,263.1782,0.0001084,1.438e-05,0.0,0 STARLINK-5229,1 54171U 22141Q   24204.68286051  .00001438  00000-0  10840-3 0  9998,2 54171  53.2156 160.0605 0001234  96.9351 263.1782 15.08846737 95960,6917.86,95.437,540.578,538.871,0.0
54171.0,STARLINK-5229,PAYLOAD,2024-07-22 21:09:29,15.08826937,0.0001443,53.2159,159.1693,90.2427,269.873,0.00038788,5.888e-05,0.0,0 STARLINK-5229,1 54171U 22141Q   24204.88158813  .00005888  00000-0  38788-3 0  9998,2 54171  53.2159 159.1693 0001443  90.2427 269.8730 15.08826937 95991,6917.92,95.438,540.784,538.787,0.0
54171.0,STARLINK-5229,PAYLOAD,2024-07-23 03:30:59,15.0887215,0.0001102,53.2169,157.9784,99.5051,260.6066,0.00031061,4.663e-05,0.0,0 STARLINK-5229,1 54171U 22141Q   24205.14651913  .00004663  00000-0  31061-3 0  9994,2 54171  53.2169 157.9784 0001102  99.5051 260.6066 15.08872150 96031,6917.782,95.436,540.409,538.885,0.0
54171.0,STARLINK-5229,PAYLOAD,2024-07-23 21:00:16,15.08843354,0.0001324,53.2177,154.7098,96.0763,264.038,-4.2973e-05,-9.72e-06,0.0,0 STARLINK-5229,1 54171U 22141Q   24205.87518834 -.00000972  00000-0 -42973-4 0  9994,2 54171  53.2177 154.7098 0001324  96.0763 264.0380 15.08843354 96144,6917.87,95.437,540.651,538.819,0.0
54171.0,STARLINK-5229,PAYLOAD,2024-07-24 03:21:48,15.08837038,0.0001377,53.2168,153.516,110.313,249.801,-1.756e-05,-5.67e-06,0.0,0 STARLINK-5229,1 54171U 22141Q   24206.14014991 -.00000567  00000-0 -17560-4 0  9994,2 54171  53.2168 153.5160 0001377 110.3130 249.8010 15.08837038 96184,6917.889,95.438,540.707,538.802,0.0
54171.0,STARLINK-5229,PAYLOAD,2024-07-24 20:51:03,15.08838113,9.45e-05,53.2169,150.2438,86.2781,273.8319,3.3204e-05,2.41e-06,0.0,0 STARLINK-5229,1 54171U 22141Q   24206.86878887  .00000241  00000-0  33204-4 0  9995,2 54171  53.2169 150.2438 0000945  86.2781 273.8319 15.08838113 96296,6917.886,95.438,540.405,539.097,0.0
54171.0,STARLINK-5229,PAYLOAD,2024-07-25 03:12:35,15.088507,0.000118,53.2172,149.06,92.0889,268.0238,0.00010793,1.431e-05,0.0,0 STARLINK-5229,1 54171U 22141Q   24207.13373932  .00001431  00000-0  10793-3 0  9996,2 54171  53.2172 149.0600 0001180  92.0889 268.0238 15.08850700 96330,6917.848,95.437,540.529,538.896,0.0
54171.0,STARLINK-5229,PAYLOAD,2024-07-25 20:41:50,15.08830294,0.0001498,53.2179,145.7878,109.4266,250.6888,8.8912e-05,1.127e-05,0.0,0 STARLINK-5229,1 54171U 22141Q   24207.86239233  .00001127  00000-0  88912-4 0  9992,2 54171  53.2179 145.7878 0001498 109.4266 250.6888 15.08830294 96447,6917.91,95.438,540.811,538.739,0.0
54171.0,STARLINK-5229,PAYLOAD,2024-07-26 04:38:46,15.08835047,0.0001325,53.2177,144.3006,97.736,262.3782,0.0001035,1.359e-05,0.0,0 STARLINK-5229,1 54171U 22141Q   24208.19359080  .00001359  00000-0  10350-3 0  9999,2 54171  53.2177 144.3006 0001325  97.7360 262.3782 15.08835047 96495,6917.896,95.438,540.677,538.844,0.0
54171.0,STARLINK-5229,PAYLOAD,2024-07-26 12:35:42,15.08836251,0.0001413,53.2177,142.8173,104.3747,255.7402,8.1452e-05,1.008e-05,0.0,0 STARLINK-5229,1 54171U 22141Q   24208.52479197  .00001008  00000-0  81452-4 0  9991,2 54171  53.2177 142.8173 0001413 104.3747 255.7402 15.08836251 96544,6917.892,95.438,540.734,538.779,0.0
54171.0,STARLINK-5229,PAYLOAD,2024-07-27 12:26:27,15.08851768,0.0001104,53.2166,138.3501,73.5826,286.5287,4.0527e-05,3.57e-06,0.0,0 STARLINK-5229,1 54171U 22141Q   24209.51837955  .00000357  00000-0  40527-4 0  9995,2 54171  53.2166 138.3501 0001104  73.5826 286.5287 15.08851768 96698,6917.844,95.437,540.473,538.946,0.0
54171.0,STARLINK-5229,PAYLOAD,2024-07-28 02:44:57,15.08828721,0.000147,53.2174,135.6758,74.4468,285.6686,-1.9289e-05,-5.95e-06,0.0,0 STARLINK-5229,1 54171U 22141Q   24210.11455979 -.00000595  00000-0 -19289-4 0  9992,2 54171  53.2174 135.6758 0001470  74.4468 285.6686 15.08828721 96785,6917.915,95.438,540.797,538.763,0.0
54171.0,STARLINK-5229,PAYLOAD,2024-07-28 12:17:16,15.08835597,0.0001551,53.2185,133.8948,79.7865,280.3302,3.5181e-06,-2.32e-06,0.0,0 STARLINK-5229,1 54171U 22141Q   24210.51199660 -.00000232  00000-0  35181-5 0  9995,2 54171  53.2185 133.8948 0001551  79.7865 280.3302 15.08835597 96840,6917.894,95.438,540.832,538.686,0.0
54171.0,STARLINK-5229,PAYLOAD,2024-07-28 18:38:46,15.0894118,0.0001166,53.2178,132.7055,47.7295,312.3796,-0.0014404,-0.00023202,0.0,0 STARLINK-5229,1 54171U 22141Q   24210.77692769 -.00023202  00000-0 -14404-2 0  9996,2 54171  53.2178 132.7055 0001166  47.7295 312.3796 15.08941180 96886,6917.571,95.431,540.243,538.63,0.0
54171.0,STARLINK-5229,PAYLOAD,2024-07-29 02:35:43,15.08813114,0.000124,53.2166,131.2171,85.4885,274.6249,0.0004795,7.346e-05,0.0,0 STARLINK-5229,1 54171U 22141Q   24211.10814792  .00007346  00000-0  47950-3 0  9998,2 54171  53.2166 131.2171 0001240  85.4885 274.6249 15.08813114 96937,6917.963,95.439,540.685,538.97,0.0
54171.0,STARLINK-5229,PAYLOAD,2024-07-29 05:46:30,15.08823225,0.0001419,53.2165,130.6216,84.4091,275.7063,0.00038117,5.781e-05,0.0,0 STARLINK-5229,1 54171U 22141Q   24211.24063025  .00005781  00000-0  38117-3 0  9994,2 54171  53.2165 130.6216 0001419  84.4091 275.7063 15.08823225 96957,6917.932,95.439,540.778,538.815,0.0
54171.0,STARLINK-5229,PAYLOAD,2024-07-30 00:51:08,15.08838303,0.0001394,53.217,127.0507,92.651,267.4642,0.00020266,2.939e-05,0.0,0 STARLINK-5229,1 54171U 22141Q   24212.03551238  .00002939  00000-0  20266-3 0  9998,2 54171  53.2170 127.0507 0001394  92.6510 267.4642 15.08838303 97073,6917.886,95.438,540.715,538.786,0.0
54171.0,STARLINK-5229,PAYLOAD,2024-07-30 23:06:32,15.08844568,0.000136,53.2153,122.8908,95.0282,265.0866,0.00011793,1.59e-05,0.0,0 STARLINK-5229,1 54171U 22141Q   24212.96287150  .00001590  00000-0  11793-3 0  9996,2 54171  53.2153 122.8908 0001360  95.0282 265.0866 15.08844568 97216,6917.866,95.437,540.672,538.791,0.0
54171.0,STARLINK-5229,PAYLOAD,2024-07-31 00:41:55,15.08849861,0.0001493,53.2172,122.5922,101.2465,258.8695,6.3376e-05,7.21e-06,0.0,0 STARLINK-5229,1 54171U 22141Q   24213.02910959  .00000721  00000-0  63376-4 0  9994,2 54171  53.2172 122.5922 0001493 101.2465 258.8695 15.08849861 97222,6917.85,95.437,540.748,538.682,0.0
54171.0,STARLINK-5229,PAYLOAD,2024-07-31 18:11:10,15.08836292,0.0001418,53.2161,119.322,94.0792,266.0362,2.6737e-05,1.38e-06,0.0,0 STARLINK-5229,1 54171U 22141Q   24213.75775928  .00000138  00000-0  26737-4 0  9991,2 54171  53.2161 119.3220 0001418  94.0792 266.0362 15.08836292 97332,6917.892,95.438,540.738,538.776,0.0
54171.0,STARLINK-5229,PAYLOAD,2024-07-31 22:57:19,15.08836409,0.0001432,53.2168,118.4304,103.2913,256.8239,2.8351e-05,1.63e-06,0.0,0 STARLINK-5229,1 54171U 22141Q   24213.95647950  .00000163  00000-0  28351-4 0  9998,2 54171  53.2168 118.4304 0001432 103.2913 256.8239 15.08836409 97369,6917.891,95.438,540.747,538.766,0.0
54171.0,STARLINK-5229,PAYLOAD,2024-08-01 10:05:01,15.08844011,0.0001523,53.2177,116.348,108.3825,251.7333,8.7067e-05,1.098e-05,0.0,0 STARLINK-5229,1 54171U 22141Q   24214.42015317  .00001098  00000-0  87067-4 0  9994,2 54171  53.2177 116.3480 0001523 108.3825 251.7333 15.08844011 97435,6917.868,95.437,540.787,538.68,0.0
54171.0,STARLINK-5229,PAYLOAD,2024-08-01 22:48:06,15.08849086,0.0001353,53.2178,113.9696,97.3177,262.7969,9.7043e-05,1.257e-05,0.0,0 STARLINK-5229,1 54171U 22141Q   24214.95006968  .00001257  00000-0  97043-4 0  9996,2 54171  53.2178 113.9696 0001353  97.3177 262.7969 15.08849086 97519,6917.853,95.437,540.654,538.782,0.0
54171.0,STARLINK-5229,PAYLOAD,2024-08-02 09:55:47,15.08848434,0.0001248,53.2162,111.8892,89.7188,270.3947,8.3073e-05,1.035e-05,0.0,0 STARLINK-5229,1 54171U 22141Q   24215.41374856  .00001035  00000-0  83073-4 0  9994,2 54171  53.2162 111.8892 0001248  89.7188 270.3947 15.08848434 97581,6917.855,95.437,540.583,538.856,0.0
54171.0,STARLINK-5229,PAYLOAD,2024-08-02 21:03:31,15.08824024,0.0001587,53.2182,109.8081,105.5588,254.5579,-0.0001254,-2.282e-05,0.0,0 STARLINK-5229,1 54171U 22141Q   24215.87744522 -.00002282  00000-0 -12540-3 0  9992,2 54171  53.2182 109.8081 0001587 105.5588 254.5579 15.08824024 97659,6917.929,95.439,540.892,538.696,0.0
54171.0,STARLINK-5229,PAYLOAD,2024-08-02 22:38:54,15.08826045,0.000148,53.2174,109.5103,100.4834,259.6325,-9.3452e-05,-1.774e-05,0.0,0 STARLINK-5229,1 54171U 22141Q   24215.94368474 -.00001774  00000-0 -93452-4 0  9995,2 54171  53.2174 109.5103 0001480 100.4834 259.6325 15.08826045 97663,6917.923,95.438,540.812,538.764,0.0
